#dP2024  1 31 18  0  0.00000000      96 __u+U IGS20 EXT  IAC
## 2299 324000.00000000   900.00000000 60340 0.7500000000000
+  118   C06C07C08C09C10C11C12C13C14C16C19C20C21C22C23C24C25
+        C26C27C28C29C30C32C33C34C35C36C37C38C39C40C41C42C43
+        C44C45C46E02E03E04E05E07E08E09E10E11E12E13E14E15E18
+        E19E21E24E25E26E27E30E31E33E34E36G01G02G03G04G05G06
+        G07G08G09G10G11G12G13G14G15G16G17G18G19G20G21G22G23
+        G24G25G26G28G29G30G31G32J02J04R01R02R03R04R05R07R08
+        R09R11R12R13R14R15R16R17R18R19R20R21R22R24R25R26  0
++        11  9  9 10  9  9  7  8 10 11  9 10  9  9 10  9 10
++         8  9  9  8 10  8  7  9 11  8 10 11 11  8  8  7 10
++         9  9  9  8  7  8  7  7  8  7  7  7  7  8  7  7  8
++         9  6  7  6  8  6  7  7  7  6  6  6  6  8  8  8  7
++         6  6  6  7  7  8  8  6  7  6  7  7  6  8  6  7  6
++         7  7  6  6  7  6  8  7  9  9 10  8  6  9  7  7  9
++         8  7  8  7  8  8  7  7  8  7 10  6  7  7  8  8  0
%c M  cc GPS ccc cccc cccc cccc cccc ccccc ccccc ccccc ccccc
%c cc cc ccc ccc cccc cccc cccc cccc ccccc ccccc ccccc ccccc
%f  0.0000000  0.000000000  0.00000000000  0.000000000000000
%f  0.0000000  0.000000000  0.00000000000  0.000000000000000
%i    0    0    0    0      0      0      0      0         0
%i    0    0    0    0      0      0      0      0         0
/* IAC                                ULTRA-RAPID PREDICTION
/* S/V CLOCKS ARE ALIGNED TO GNSS TIME                      
/* G:C1WC2W R:C1PC2P E:C1XC5X C:C2IC6I J:C1CC2S             
/* PCV:IGS20_2290 OL/AL:FES2004  NONE     YN ORB:CoN CLK:CoN
*  2024 02 01 10 15  0.00000000
PC06  -2650.446230  34982.502422 -23140.979111     82.716227
PC07 -12022.318871  26742.472851  30332.779303   -730.693827
PC08 -17550.452267  36959.799977 -10620.273216     71.102861
PC09   4001.288888  38818.766581 -14691.521626   -430.650520
PC10  -3619.638809  27661.339431  31895.645873    102.910665
PC11  14602.328584  -6306.633054 -22857.840569    387.883216
PC12  21824.056276  11705.460222 -12816.517653    780.886957
PC13 -10430.610552  36889.596331 -17695.639420    413.295092
PC14  24603.983991 -10920.043906   7483.113269     93.083329
PC16  -3191.604480  33998.080670 -24231.282047   -314.316913
PC19 -17805.125988  14841.916049 -15496.312318   -931.241910
PC20 -27195.263656   6191.012247     78.114396   -120.488317
PC21  20935.448495   7047.588553 -17048.724332   -963.051119
PC22   2406.886069  15476.849781 -23094.759008   -126.049332
PC23   1576.342853 -26492.413451  -8621.036346   -784.598491
PC24  17560.235603  -5921.510744  20833.806230    843.846068
PC25  12650.341679 -23489.028838   8131.464373    315.636384
PC26  11975.432841  13717.531281  21133.298029   -242.947076
PC27 -20899.170033 -17870.769392   4782.404721    264.965390
PC28 -10958.610299 -23237.066471 -10892.588119    201.326823
PC29  -7349.179982  14923.444986  22401.509142    235.917915
PC30 -20745.867610  -2480.195857  18504.847685    -20.373885
PC32 -20885.852987  -6984.833647  17149.935978   -561.276766
PC33  17803.630412 -14968.165831  15436.115349   -945.851461
PC34  20094.100727    943.621921 -19341.263430    359.775411
PC35  11713.584892  22819.165410  10931.406779    443.878868
PC36 -13464.322995  22870.684942  -8635.821658    -30.985886
PC37 -11429.789163 -14405.212633 -20981.920417   -933.828459
PC38 -21152.324831  36495.848598  -2028.253133    134.086019
PC39  -7287.382433  29332.159263 -29248.723452     -6.922655
PC40 -18057.578672  19976.209483  32363.126454    -54.575579
PC41  -1512.557009 -15725.443574  23060.116871   -885.330783
PC42  27368.239120  -5281.513808  -1580.060684   -458.907903
PC43   8253.193050 -14335.528517 -22485.888674     58.704258
PC44  21540.685858  17099.199856  -4631.963736    371.296576
PC45  -1506.296412  26421.927740   8882.953789    -67.205879
PC46 -17552.030296   7030.253957 -20551.880011   -120.288341
PE02  24411.772765 -16171.476282   4234.400905     99.805092
PE03  22038.842238  -5897.484209  18860.439386    -90.885194
PE04  -2717.596825  16955.620028 -24103.089350   -317.088068
PE05  28242.259015   8436.925508   2707.392067   4715.860388
PE07 -17622.764460 -18057.699428  15476.675213   -101.460332
PE08   3431.744563 -16590.526397  24271.437878   -217.021283
PE09  17570.097002  17987.909409 -15623.474514   -320.332681
PE10   4272.065633  29266.368473   1177.620370   -598.582144
PE11  10454.158469  26102.899339  -9221.591224   3267.164236
PE12  -2007.201028  27704.582929  10198.465403   -887.589936
PE13 -10103.543763 -26472.885225   8591.610092    -20.059351
PE14  30198.384002   9680.042032  -3313.081191     26.955963
PE15   2280.005118 -27508.230410 -10694.344014    -83.365569
PE18 -21582.435452 -10868.319567  -1482.881075    276.776525
PE19 -23540.913733   4055.768419 -17476.754671   -699.989933
PE21 -22225.655188    805.507376 -19546.052971   -576.795510
PE24   6537.421341  16098.772498  23944.832388   -574.004774
PE25  22022.223923   -442.770872  19765.214408      0.286893
PE26 -16583.051132  -9258.042229  22715.573251    356.060238
PE27  -7001.676822 -15751.089960 -24067.668700   -263.764189
PE30  12428.908991 -22829.880451 -14159.061352   -871.392873
PE31 -12195.203731  22845.333491  14344.723678    -15.026079
PE33 -13378.463697  11802.103530  23628.272285      6.900242
PE34  13133.341653 -12426.091849 -23434.204887    -92.201127
PE36  16376.322667   9980.569333 -22534.715110   -179.848834
PG01 -12873.218560   8152.728257  21370.025526    167.907298
PG02 -15641.244665    191.790688  21992.338356   -492.193597
PG03 -22299.984891  10126.635566   9989.744376    164.765653
PG04 -23258.176560    415.703848 -12927.549979    280.748377
PG05  18920.170604     15.180122 -18847.757553   -160.145116
PG06   5997.594466  25690.185004  -2446.996878    423.838902
PG07  -6887.084423  20497.451704 -14611.817968    -51.421322
PG08 -25912.793257  -4928.250538   4586.518964   -164.938624
PG09 -13591.253022  10560.451827 -20327.680957     77.634910
PG10   4693.891097 -19385.851093  17575.581997    -71.577194
PG11  11817.617558  19830.242509 -13152.759349   -560.674060
PG12  23011.259941  -8423.387961   9872.471210   -473.654433
PG13  22588.644557  13969.611458  -2746.183387    621.422937
PG14  -8604.129042  20395.785614  14563.414428    314.139944
PG15  26220.000291   2277.038279   3826.690326    123.165732
PG16 -14911.362900  -7442.197046 -21107.845780   -372.107954
PG17    -31.386593  16035.009582  21575.838915    718.309600
PG18   6263.004423 -21435.633016 -14220.154672   -545.715845
PG19  10289.291014  17767.257226  16856.679134    434.569202
PG20   9888.083381  12028.720028 -21468.690207    389.158488
PG21 -16591.941447  -6184.608574  20557.566200    136.471275
PG22  -1903.699955  18208.133369  19774.332895     38.481623
PG23  15256.888971 -20359.301609   7302.053925    147.017760
PG24  16336.456242   2065.500205  20499.127214   -424.287533
PG25  19962.043973 -17280.700682    247.909993    487.201937
PG26  -6588.986326 -15245.844425 -20810.365620    194.728381
PG28  -5343.928695 -26014.985195    447.006741   -116.700979
PG29  15575.680994  -7999.657219 -20049.628521   -607.785456
PG30    338.309656  25761.779355  -5719.283799   -438.222248
PG31 -10169.196427 -22626.296192  -9115.980629   -227.601239
PG32  -4859.172231 -16695.370862  20331.428531   -609.052733
PJ02 -31015.783942  28392.849813   8417.701257     -1.613874
PJ04 -30176.320949  23746.104419 -12113.333853     78.795702
PR01  18190.383355   6608.418693 -16617.885998     76.027885
PR02  25457.677240   -698.475494   -408.399762    -22.439480
PR03  18181.503072  -8274.731255  15873.025139     93.694965
PR04   1294.565642 -10762.583611  23120.894133    221.549133
PR05 -16387.955976  -7780.929340  17958.809819    126.232890
PR07 -17629.137084   8458.472143 -16369.013986     74.850382
PR08  -1011.364365  10850.901663 -23001.570514    -74.252982
PR09 -14054.117296   5850.436667 -20431.078466    167.586911
PR11  -7050.869859  23001.494868   8461.691327     35.766076
PR12   5532.981921  12135.855362  21763.271857     36.262141
PR13  13260.659606  -3448.544122  21492.495684    -43.897634
PR14  14099.014101 -19869.251460   7588.470541     26.004317
PR15   6321.376097 -22686.553881  -9792.205160     82.581776
PR16  -5274.962386 -12314.761788 -21711.917338     22.935613
PR17   5788.767864 -10194.008268 -22637.998598     57.506478
PR18  -5720.826879 -20904.759317 -13477.799536    125.139506
PR19 -13065.507291 -21888.996577    957.533395   -264.182748
PR20 -14593.461797  -8251.899288  19256.129319   -107.629845
PR21  -5553.761988  10445.441420  22605.583314    -73.494474
PR22   5548.717850  21503.283236  12564.005111    105.968266
PR24  15079.224046   6888.703914 -19369.071726    -42.159179
PR25  -6377.293835  10244.414833  22483.605583     75.872588
PR26  -1888.773348  10880.881438 -22969.147621   -200.544944
EOF
